[{"OBJECT_NAME":"STARLINK-30098","OBJECT_ID":"2023-056G","EPOCH":"2025-10-30T00:46:31.148544","MEAN_MOTION":15.02536262,"ECCENTRICITY":0.00011779,"INCLINATION":43.0018,"RA_OF_ASC_NODE":199.8893,"ARG_OF_PERICENTER":274.3744,"MEAN_ANOMALY":85.6964,"EPHEMERIS_TYPE":0,"CLASSIFICATION_TYPE":"U","NORAD_CAT_ID":56292,"ELEMENT_SET_NO":999,"REV_AT_EPOCH":14037,"BSTAR":5.1311775e-5,"MEAN_MOTION_DOT":4.9e-6,"MEAN_MOTION_DDOT":0},{"OBJECT_NAME":"STARLINK-30090","OBJECT_ID":"2023-056H","EPOCH":"2025-10-30T00:36:58.809024","MEAN_MOTION":15.02674173,"ECCENTRICITY":0.00015341,"INCLINATION":43.0074,"RA_OF_ASC_NODE":200.687,"ARG_OF_PERICENTER":238.6899,"MEAN_ANOMALY":121.3794,"EPHEMERIS_TYPE":0,"CLASSIFICATION_TYPE":"U","NORAD_CAT_ID":56293,"ELEMENT_SET_NO":999,"REV_AT_EPOCH":14036,"BSTAR":-1.243847e-5,"MEAN_MOTION_DOT":-3.73e-6,"MEAN_MOTION_DDOT":0},{"OBJECT_NAME":"STARLINK-30049","OBJECT_ID":"2023-056J","EPOCH":"2025-10-30T00:32:17.452608","MEAN_MOTION":15.02538427,"ECCENTRICITY":0.00013728,"INCLINATION":43.0033,"RA_OF_ASC_NODE":200.6026,"ARG_OF_PERICENTER":244.2507,"MEAN_ANOMALY":115.8193,"EPHEMERIS_TYPE":0,"CLASSIFICATION_TYPE":"U","NORAD_CAT_ID":56294,"ELEMENT_SET_NO":999,"REV_AT_EPOCH":14036,"BSTAR":-2.5347329e-5,"MEAN_MOTION_DOT":-5.46e-6,"MEAN_MOTION_DDOT":0},{"OBJECT_NAME":"STARLINK-30083","OBJECT_ID":"2023-056K","EPOCH":"2025-10-30T00:23:25.467072","MEAN_MOTION":15.02536805,"ECCENTRICITY":0.00011473,"INCLINATION":43.0024,"RA_OF_ASC_NODE":174.4634,"ARG_OF_PERICENTER":269.7585,"MEAN_ANOMALY":90.3126,"EPHEMERIS_TYPE":0,"CLASSIFICATION_TYPE":"U","NORAD_CAT_ID":56295,"ELEMENT_SET_NO":999,"REV_AT_EPOCH":14066,"BSTAR":1.0001715e-5,"MEAN_MOTION_DOT":-6.8e-7,"MEAN_MOTION_DDOT":0},{"OBJECT_NAME":"STARLINK-30089","OBJECT_ID":"2023-056L","EPOCH":"2025-10-29T21:12:20.009952","MEAN_MOTION":15.02535383,"ECCENTRICITY":0.00012003,"INCLINATION":43.0052,"RA_OF_ASC_NODE":162.1511,"ARG_OF_PERICENTER":268.8103,"MEAN_ANOMALY":91.2601,"EPHEMERIS_TYPE":0,"CLASSIFICATION_TYPE":"U","NORAD_CAT_ID":56296,"ELEMENT_SET_NO":999,"REV_AT_EPOCH":14079,"BSTAR":1.5394063e-5,"MEAN_MOTION_DOT":4.0e-8,"MEAN_MOTION_DDOT":0},{"OBJECT_NAME":"STARLINK-30086","OBJECT_ID":"2023-056M","EPOCH":"2025-10-30T00:03:29.941632","MEAN_MOTION":15.0255499,"ECCENTRICITY":0.00012287,"INCLINATION":43.0034,"RA_OF_ASC_NODE":200.4509,"ARG_OF_PERICENTER":273.4309,"MEAN_ANOMALY":86.6393,"EPHEMERIS_TYPE":0,"CLASSIFICATION_TYPE":"U","NORAD_CAT_ID":56297,"ELEMENT_SET_NO":999,"REV_AT_EPOCH":14036,"BSTAR":0.00016569701,"MEAN_MOTION_DOT":2.036e-5,"MEAN_MOTION_DDOT":0},{"OBJECT_NAME":"STARLINK-30109","OBJECT_ID":"2023-056N","EPOCH":"2025-10-30T00:13:07.067712","MEAN_MOTION":15.02532737,"ECCENTRICITY":0.00011212,"INCLINATION":43.0052,"RA_OF_ASC_NODE":200.5057,"ARG_OF_PERICENTER":272.63,"MEAN_ANOMALY":87.4414,"EPHEMERIS_TYPE":0,"CLASSIFICATION_TYPE":"U","NORAD_CAT_ID":56298,"ELEMENT_SET_NO":999,"REV_AT_EPOCH":14042,"BSTAR":2.7158715e-5,"MEAN_MOTION_DOT":1.63e-6,"MEAN_MOTION_DDOT":0},{"OBJECT_NAME":"STARLINK-30108","OBJECT_ID":"2023-056P","EPOCH":"2025-10-29T23:25:42.584448","MEAN_MOTION":15.02530988,"ECCENTRICITY":0.00012285,"INCLINATION":43.0026,"RA_OF_ASC_NODE":188.1194,"ARG_OF_PERICENTER":264.4357,"MEAN_ANOMALY":95.6345,"EPHEMERIS_TYPE":0,"CLASSIFICATION_TYPE":"U","NORAD_CAT_ID":56299,"ELEMENT_SET_NO":999,"REV_AT_EPOCH":14056,"BSTAR":-3.4102404e-5,"MEAN_MOTION_DOT":-6.64e-6,"MEAN_MOTION_DDOT":0},{"OBJECT_NAME":"STARLINK-30104","OBJECT_ID":"2023-056Q","EPOCH":"2025-10-30T00:41:43.666368","MEAN_MOTION":15.02540015,"ECCENTRICITY":8.259e-5,"INCLINATION":43.0022,"RA_OF_ASC_NODE":199.8751,"ARG_OF_PERICENTER":270.9448,"MEAN_ANOMALY":89.13,"EPHEMERIS_TYPE":0,"CLASSIFICATION_TYPE":"U","NORAD_CAT_ID":56300,"ELEMENT_SET_NO":999,"REV_AT_EPOCH":14043,"BSTAR":1.8940969e-5,"MEAN_MOTION_DOT":5.2e-7,"MEAN_MOTION_DDOT":0},{"OBJECT_NAME":"STARLINK-30101","OBJECT_ID":"2023-056R","EPOCH":"2025-10-29T23:49:09.654240","MEAN_MOTION":15.02536966,"ECCENTRICITY":0.00011062,"INCLINATION":43.0001,"RA_OF_ASC_NODE":200.4386,"ARG_OF_PERICENTER":258.8473,"MEAN_ANOMALY":101.2245,"EPHEMERIS_TYPE":0,"CLASSIFICATION_TYPE":"U","NORAD_CAT_ID":56301,"ELEMENT_SET_NO":999,"REV_AT_EPOCH":14042,"BSTAR":8.655266e-5,"MEAN_MOTION_DOT":9.66e-6,"MEAN_MOTION_DDOT":0},{"OBJECT_NAME":"STARLINK-30111","OBJECT_ID":"2023-056S","EPOCH":"2025-10-29T23:39:33.469920","MEAN_MOTION":15.02522713,"ECCENTRICITY":0.00014103,"INCLINATION":43.0037,"RA_OF_ASC_NODE":200.3271,"ARG_OF_PERICENTER":262.6472,"MEAN_ANOMALY":97.421,"EPHEMERIS_TYPE":0,"CLASSIFICATION_TYPE":"U","NORAD_CAT_ID":56302,"ELEMENT_SET_NO":999,"REV_AT_EPOCH":14042,"BSTAR":-0.00017705745,"MEAN_MOTION_DOT":-2.594e-5,"MEAN_MOTION_DDOT":0},{"OBJECT_NAME":"STARLINK-30099","OBJECT_ID":"2023-056U","EPOCH":"2025-10-29T23:34:45.418368","MEAN_MOTION":15.02532363,"ECCENTRICITY":0.00013668,"INCLINATION":43.0052,"RA_OF_ASC_NODE":200.2908,"ARG_OF_PERICENTER":268.1824,"MEAN_ANOMALY":91.8862,"EPHEMERIS_TYPE":0,"CLASSIFICATION_TYPE":"U","NORAD_CAT_ID":56304,"ELEMENT_SET_NO":999,"REV_AT_EPOCH":14042,"BSTAR":-1.1685459e-5,"MEAN_MOTION_DOT":-3.61e-6,"MEAN_MOTION_DDOT":0},{"OBJECT_NAME":"STARLINK-30094","OBJECT_ID":"2023-056V","EPOCH":"2025-10-29T17:07:02.386848","MEAN_MOTION":15.02538729,"ECCENTRICITY":0.00010818,"INCLINATION":43.002,"RA_OF_ASC_NODE":201.6997,"ARG_OF_PERICENTER":272.0803,"MEAN_ANOMALY":87.9915,"EPHEMERIS_TYPE":0,"CLASSIFICATION_TYPE":"U","NORAD_CAT_ID":56305,"ELEMENT_SET_NO":999,"REV_AT_EPOCH":14038,"BSTAR":5.7922092e-5,"MEAN_MOTION_DOT":5.79e-6,"MEAN_MOTION_DDOT":0},{"OBJECT_NAME":"STARLINK-30112","OBJECT_ID":"2023-056W","EPOCH":"2025-10-29T23:44:20.942592","MEAN_MOTION":15.02530793,"ECCENTRICITY":9.4e-5,"INCLINATION":43.0028,"RA_OF_ASC_NODE":200.3501,"ARG_OF_PERICENTER":267.4088,"MEAN_ANOMALY":92.6647,"EPHEMERIS_TYPE":0,"CLASSIFICATION_TYPE":"U","NORAD_CAT_ID":56306,"ELEMENT_SET_NO":999,"REV_AT_EPOCH":14042,"BSTAR":1.011539e-5,"MEAN_MOTION_DOT":-6.7e-7,"MEAN_MOTION_DDOT":0},{"OBJECT_NAME":"STARLINK-6038","OBJECT_ID":"2023-058A","EPOCH":"2025-10-30T06:36:34.841664","MEAN_MOTION":15.05651639,"ECCENTRICITY":0.00017664,"INCLINATION":97.6035,"RA_OF_ASC_NODE":302.6784,"ARG_OF_PERICENTER":71.2978,"MEAN_ANOMALY":288.844,"EPHEMERIS_TYPE":0,"CLASSIFICATION_TYPE":"U","NORAD_CAT_ID":56317,"ELEMENT_SET_NO":999,"REV_AT_EPOCH":13822,"BSTAR":3.7122983e-5,"MEAN_MOTION_DOT":4.75e-6,"MEAN_MOTION_DDOT":0},{"OBJECT_NAME":"STARLINK-5954","OBJECT_ID":"2023-058B","EPOCH":"2025-10-30T05:56:43.629216","MEAN_MOTION":15.05654098,"ECCENTRICITY":0.00019236,"INCLINATION":97.6019,"RA_OF_ASC_NODE":302.7134,"ARG_OF_PERICENTER":88.6316,"MEAN_ANOMALY":271.5132,"EPHEMERIS_TYPE":0,"CLASSIFICATION_TYPE":"U","NORAD_CAT_ID":56318,"ELEMENT_SET_NO":999,"REV_AT_EPOCH":13822,"BSTAR":0.00023789848,"MEAN_MOTION_DOT":3.374e-5,"MEAN_MOTION_DDOT":0}]
