STARLINK-30098          
1 56292U 23056G   25303.03230496  .00000490  00000+0  51312-4 0  9998
2 56292  43.0018 199.8893 0001177 274.3744  85.6964 15.02536262140371
STARLINK-30090          
1 56293U 23056H   25303.02568066 -.00000373  00000+0 -12438-4 0  9993
2 56293  43.0074 200.6870 0001534 238.6899 121.3794 15.02674173140363
STARLINK-30049          
1 56294U 23056J   25303.02242422 -.00000546  00000+0 -25347-4 0  9994
2 56294  43.0033 200.6026 0001372 244.2507 115.8193 15.02538427140363
STARLINK-30083          
1 56295U 23056K   25303.01626698 -.00000068  00000+0  10002-4 0  9995
2 56295  43.0024 174.4634 0001147 269.7585  90.3126 15.02536805140669
STARLINK-30089          
1 56296U 23056L   25302.88356493  .00000004  00000+0  15394-4 0  9991
2 56296  43.0052 162.1511 0001200 268.8103  91.2601 15.02535383140797
STARLINK-30086          
1 56297U 23056M   25303.00242988  .00002036  00000+0  16570-3 0  9993
2 56297  43.0034 200.4509 0001228 273.4309  86.6393 15.02554990140365
STARLINK-30109          
1 56298U 23056N   25303.00910958  .00000163  00000+0  27159-4 0  9998
2 56298  43.0052 200.5057 0001121 272.6300  87.4414 15.02532737140424
STARLINK-30108          
1 56299U 23056P   25302.97618732 -.00000664  00000+0 -34102-4 0  9993
2 56299  43.0026 188.1194 0001228 264.4357  95.6345 15.02530988140563
STARLINK-30104          
1 56300U 23056Q   25303.02897762  .00000052  00000+0  18941-4 0  9997
2 56300  43.0022 199.8751 0000825 270.9448  89.1300 15.02540015140432
STARLINK-30101          
1 56301U 23056R   25302.99247285  .00000966  00000+0  86553-4 0  9990
2 56301  43.0001 200.4386 0001106 258.8473 101.2245 15.02536966140422
STARLINK-30111          
1 56302U 23056S   25302.98580405 -.00002594  00000+0 -17706-3 0  9998
2 56302  43.0037 200.3271 0001410 262.6472  97.4210 15.02522713140427
STARLINK-30099          
1 56304U 23056U   25302.98247012 -.00000361  00000+0 -11685-4 0  9995
2 56304  43.0052 200.2908 0001366 268.1824  91.8862 15.02532363140427
STARLINK-30094          
1 56305U 23056V   25302.71322207  .00000579  00000+0  57922-4 0  9990
2 56305  43.0020 201.6997 0001081 272.0803  87.9915 15.02538729140383
STARLINK-30112          
1 56306U 23056W   25302.98913128 -.00000067  00000+0  10115-4 0  9994
2 56306  43.0028 200.3501 0000940 267.4088  92.6647 15.02530793140428
STARLINK-6038           
1 56317U 23058A   25303.27540326  .00000475  00000+0  37123-4 0  9997
2 56317  97.6035 302.6784 0001766  71.2978 288.8440 15.05651639138229
STARLINK-5954           
1 56318U 23058B   25303.24772719  .00003374  00000+0  23790-3 0  9993
2 56318  97.6019 302.7134 0001923  88.6316 271.5132 15.05654098138224
